0 COSMOS 1089
1 11308U 79026A   13282.14974059  .00000036  00000-0  21422-4 0  5789
2 11308 082.9762 333.2098 0022081 001.5563 018.0654 13.75043822732731
0 COSMOS 1089
1 11308U 79026A   13283.17515670  .00000051  00000-0  37660-4 0  5792
2 11308 082.9760 332.4537 0022018 358.6702 054.0606 13.75043876732870
0 COSMOS 1089
1 11308U 79026A   13284.19452223  .00000069  00000-0  56053-4 0  5807
2 11308 082.9758 331.7020 0021928 355.8638 060.0422 13.75043853733017
0 COSMOS 1089
1 11308U 79026A   13285.51985944  .00000076  00000-0  63438-4 0  5819
2 11308 082.9755 330.7248 0021853 352.0244 140.8102 13.75043862733195
0 COSMOS 1089
1 11308U 79026A   13286.53373657  .00000074  00000-0  61242-4 0  5824
2 11308 082.9752 329.9772 0021790 349.1020 119.7535 13.75043969733332
0 COSMOS 1089
1 11308U 79026A   13287.70421010  .00000063  00000-0  50577-4 0  5839
2 11308 082.9749 329.1140 0021712 345.7759 153.8403 13.75044156733493
0 COSMOS 1089
1 11308U 79026A   13288.79126102  .00000054  00000-0  40897-4 0  5848
2 11308 082.9747 328.3123 0021662 342.5913 135.0643 13.75044353733648
0 COSMOS 1089
1 11308U 79026A   13290.15612404  .00000044  00000-0  30603-4 0  5850
2 11308 082.9745 327.3056 0021609 338.5646 051.5696 13.75044635733833
0 COSMOS 1089
1 11308U 79026A   13291.18077409  .00000039  00000-0  24591-4 0  5868
2 11308 082.9744 326.5498 0021540 335.6183 083.8371 13.75044778733972
0 COSMOS 1089
1 11308U 79026A   13292.20023212  .00000040  00000-0  25915-4 0  5879
2 11308 082.9744 325.7977 0021490 332.6471 090.4434 13.75044938734115
0 COSMOS 1089
1 11308U 79026A   13293.53067980  .00000052  00000-0  38475-4 0  5885
2 11308 082.9744 324.8164 0021417 328.7775 196.5297 13.75044959734292
0 COSMOS 1089
1 11308U 79026A   13294.54919409  .00000051  00000-0  37174-4 0  5894
2 11308 082.9743 324.0650 0021365 325.7992 198.4748 13.75044975734439
0 COSMOS 1089
1 11308U 79026A   13295.70816846  .00000057  00000-0  44363-4 0  5900
2 11308 082.9743 323.2101 0021337 322.4046 175.7446 13.75044993734594
